[{"CCSDS_OMM_VERS": "2.0", "COMMENT": "GENERATED VIA SPACE-TRACK.ORG API", "CREATION_DATE": "2021-12-06T18:34:27", "ORIGINATOR": "18 SPCS", "OBJECT_NAME": "DELTA 2 R/B(1)", "OBJECT_ID": "1992-009B", "CENTER_NAME": "EARTH", "REF_FRAME": "TEME", "TIME_SYSTEM": "UTC", "MEAN_ELEMENT_THEORY": "SGP4", "EPOCH": "2021-12-06T13:30:01.367712", "MEAN_MOTION": "14.83507205", "ECCENTRICITY": "0.00468790", "INCLINATION": "19.9972", "RA_OF_ASC_NODE": "308.2355", "ARG_OF_PERICENTER": "88.9131", "MEAN_ANOMALY": "271.6658", "EPHEMERIS_TYPE": "0", "CLASSIFICATION_TYPE": "U", "NORAD_CAT_ID": "21891", "ELEMENT_SET_NO": "999", "REV_AT_EPOCH": "58816", "BSTAR": "0.00004172200000", "MEAN_MOTION_DOT": "0.00000764", "MEAN_MOTION_DDOT": "0.0000000000000", "SEMIMAJOR_AXIS": "6996.412", "PERIOD": "97.067", "APOAPSIS": "651.076", "PERIAPSIS": "585.479", "OBJECT_TYPE": "ROCKET BODY", "RCS_SIZE": "LARGE", "COUNTRY_CODE": "US", "LAUNCH_DATE": "1992-02-23", "SITE": "AFETR", "DECAY_DATE": null, "FILE": "3234035", "GP_ID": "191189272", "TLE_LINE0": "0 DELTA 2 R/B(1)", "TLE_LINE1": "1 21891U 92009B   21340.56251583  .00000764  00000-0  41722-4 0  9993", "TLE_LINE2": "2 21891  19.9972 308.2355 0046879  88.9131 271.6658 14.83507205588168"}, {"CCSDS_OMM_VERS": "2.0", "COMMENT": "GENERATED VIA SPACE-TRACK.ORG API", "CREATION_DATE": "2021-12-06T18:34:27", "ORIGINATOR": "18 SPCS", "OBJECT_NAME": "ARIANE 3 DEB", "OBJECT_ID": "1984-114E", "CENTER_NAME": "EARTH", "REF_FRAME": "TEME", "TIME_SYSTEM": "UTC", "MEAN_ELEMENT_THEORY": "SGP4", "EPOCH": "2021-12-06T05:30:17.179200", "MEAN_MOTION": "10.51726576", "ECCENTRICITY": "0.24410320", "INCLINATION": "6.7540", "RA_OF_ASC_NODE": "336.7363", "ARG_OF_PERICENTER": "8.1201", "MEAN_ANOMALY": "72.6237", "EPHEMERIS_TYPE": "0", "CLASSIFICATION_TYPE": "U", "NORAD_CAT_ID": "27740", "ELEMENT_SET_NO": "999", "REV_AT_EPOCH": "88733", "BSTAR": "0.00133720000000", "MEAN_MOTION_DOT": "0.00043411", "MEAN_MOTION_DDOT": "-0.0000064129000", "SEMIMAJOR_AXIS": "8799.675", "PERIOD": "136.918", "APOAPSIS": "4569.568", "PERIAPSIS": "273.511", "OBJECT_TYPE": "DEBRIS", "RCS_SIZE": "LARGE", "COUNTRY_CODE": "FR", "LAUNCH_DATE": "1984-11-10", "SITE": "FRGUI", "DECAY_DATE": null, "FILE": "3234035", "GP_ID": "191191797", "TLE_LINE0": "0 ARIANE 3 DEB", "TLE_LINE1": "1 27740U 84114E   21340.22936550  .00043411 -64129-5  13372-2 0  9999", "TLE_LINE2": "2 27740   6.7540 336.7363 2441032   8.1201  72.6237 10.51726576887339"}, {"CCSDS_OMM_VERS": "2.0", "COMMENT": "GENERATED VIA SPACE-TRACK.ORG API", "CREATION_DATE": "2021-12-06T18:34:27", "ORIGINATOR": "18 SPCS", "OBJECT_NAME": "ARIANE 5 R/B", "OBJECT_ID": "2006-020D", "CENTER_NAME": "EARTH", "REF_FRAME": "TEME", "TIME_SYSTEM": "UTC", "MEAN_ELEMENT_THEORY": "SGP4", "EPOCH": "2021-12-06T01:48:01.947456", "MEAN_MOTION": "4.54287803", "ECCENTRICITY": "0.56747340", "INCLINATION": "6.8801", "RA_OF_ASC_NODE": "277.6242", "ARG_OF_PERICENTER": "306.1008", "MEAN_ANOMALY": "13.7635", "EPHEMERIS_TYPE": "0", "CLASSIFICATION_TYPE": "U", "NORAD_CAT_ID": "29165", "ELEMENT_SET_NO": "999", "REV_AT_EPOCH": "16977", "BSTAR": "0.00053991000000", "MEAN_MOTION_DOT": "0.00003336", "MEAN_MOTION_DDOT": "0.0000000000000", "SEMIMAJOR_AXIS": "15399.778", "PERIOD": "316.980", "APOAPSIS": "17760.607", "PERIAPSIS": "282.679", "OBJECT_TYPE": "ROCKET BODY", "RCS_SIZE": "LARGE", "COUNTRY_CODE": "FR", "LAUNCH_DATE": "2006-05-27", "SITE": "FRGUI", "DECAY_DATE": null, "FILE": "3234035", "GP_ID": "191193141", "TLE_LINE0": "0 ARIANE 5 R/B", "TLE_LINE1": "1 29165U 06020D   21340.07502254  .00003336  00000-0  53991-3 0  9991", "TLE_LINE2": "2 29165   6.8801 277.6242 5674734 306.1008  13.7635  4.54287803169778"}, {"CCSDS_OMM_VERS": "2.0", "COMMENT": "GENERATED VIA SPACE-TRACK.ORG API", "CREATION_DATE": "2021-12-06T18:34:27", "ORIGINATOR": "18 SPCS", "OBJECT_NAME": "PSLV R/B", "OBJECT_ID": "2007-001E", "CENTER_NAME": "EARTH", "REF_FRAME": "TEME", "TIME_SYSTEM": "UTC", "MEAN_ELEMENT_THEORY": "SGP4", "EPOCH": "2021-12-06T13:27:30.104640", "MEAN_MOTION": "14.85933120", "ECCENTRICITY": "0.00255870", "INCLINATION": "97.9819", "RA_OF_ASC_NODE": "316.2106", "ARG_OF_PERICENTER": "143.1329", "MEAN_ANOMALY": "217.1651", "EPHEMERIS_TYPE": "0", "CLASSIFICATION_TYPE": "U", "NORAD_CAT_ID": "29713", "ELEMENT_SET_NO": "999", "REV_AT_EPOCH": "80644", "BSTAR": "0.00004723800000", "MEAN_MOTION_DOT": "0.00000358", "MEAN_MOTION_DDOT": "0.0000000000000", "SEMIMAJOR_AXIS": "6988.796", "PERIOD": "96.909", "APOAPSIS": "628.543", "PERIAPSIS": "592.778", "OBJECT_TYPE": "ROCKET BODY", "RCS_SIZE": "LARGE", "COUNTRY_CODE": "IND", "LAUNCH_DATE": "2007-01-10", "SITE": "SRI", "DECAY_DATE": null, "FILE": "3234035", "GP_ID": "191192663", "TLE_LINE0": "0 PSLV R/B", "TLE_LINE1": "1 29713U 07001E   21340.56076510  .00000358  00000-0  47238-4 0  9994", "TLE_LINE2": "2 29713  97.9819 316.2106 0025587 143.1329 217.1651 14.85933120806447"}, {"CCSDS_OMM_VERS": "2.0", "COMMENT": "GENERATED VIA SPACE-TRACK.ORG API", "CREATION_DATE": "2021-12-06T18:34:27", "ORIGINATOR": "18 SPCS", "OBJECT_NAME": "H-2A R/B", "OBJECT_ID": "2016-012E", "CENTER_NAME": "EARTH", "REF_FRAME": "TEME", "TIME_SYSTEM": "UTC", "MEAN_ELEMENT_THEORY": "SGP4", "EPOCH": "2021-12-06T12:26:40.693920", "MEAN_MOTION": "15.05770418", "ECCENTRICITY": "0.00176380", "INCLINATION": "30.6268", "RA_OF_ASC_NODE": "20.9201", "ARG_OF_PERICENTER": "58.8271", "MEAN_ANOMALY": "301.4086", "EPHEMERIS_TYPE": "0", "CLASSIFICATION_TYPE": "U", "NORAD_CAT_ID": "41341", "ELEMENT_SET_NO": "999", "REV_AT_EPOCH": "31942", "BSTAR": "0.00006265400000", "MEAN_MOTION_DOT": "0.00001037", "MEAN_MOTION_DDOT": "0.0000000000000", "SEMIMAJOR_AXIS": "6927.279", "PERIOD": "95.632", "APOAPSIS": "561.362", "PERIAPSIS": "536.925", "OBJECT_TYPE": "ROCKET BODY", "RCS_SIZE": "LARGE", "COUNTRY_CODE": "JPN", "LAUNCH_DATE": "2016-02-17", "SITE": "TNSTA", "DECAY_DATE": null, "FILE": "3234035", "GP_ID": "191201182", "TLE_LINE0": "0 H-2A R/B", "TLE_LINE1": "1 41341U 16012E   21340.51852655  .00001037  00000-0  62654-4 0  9998", "TLE_LINE2": "2 41341  30.6268  20.9201 0017638  58.8271 301.4086 15.05770418319429"}]